IRIDIUM 26              
1 24903U 97043A   25317.32002542  .00001036  00000+0  34124-3 0  9993
2 24903  86.3978  47.9232 0001963  90.6724 269.4699 14.37292781478160
IRIDIUM 22              
1 24907U 97043E   25317.72210574  .00000990  00000+0  33358-3 0  9993
2 24907  86.3979  51.4225 0001993  96.1517 263.9907 14.36091413478238
DUMMY MASS 1            
1 24925U 97048A   25317.73785591  .00001125  00000+0  12210-3 0  9990
2 24925  86.3347  66.1237 0006067 357.2134   2.9056 14.87144454527350
DUMMY MASS 2            
1 24926U 97048B   25317.72497399  .00001127  00000+0  12313-3 0  9992
2 24926  86.3346  67.7655 0007294   6.5679 353.5640 14.86895178527126
IRIDIUM 29              
1 24944U 97051A   25317.76070775  .00001251  00000+0  41906-3 0  9993
2 24944  86.3938  81.1098 0002149  97.3285 262.8156 14.36623359474747
IRIDIUM 33              
1 24946U 97051C   25317.76877458  .00000899  00000+0  30892-3 0  9997
2 24946  86.3855  80.3808 0006362 321.2280  38.8459 14.35006298474194
IRIDIUM 28              
1 24948U 97051E   25317.77906692  .00001131  00000+0  37124-3 0  9998
2 24948  86.3947  78.5312 0001668  80.9272 279.2114 14.37525476475333
IRIDIUM 36              
1 24967U 97056C   25317.85819218  .00001149  00000+0  37566-3 0  9999
2 24967  86.3936 110.1302 0001784  91.1502 268.9900 14.37745499473721
